{
  "type": "FeatureCollection",
  "features": [
    {
      "type": "Feature",
      "properties": {
        "zona": "ZMC",
        "label": "Zona Mista Central"
      },
      "geometry": {
        "type": "Polygon",
        "coordinates": [
          [
            [
              -45.958889,
              -22.238277999999998
            ],
            [
              -45.938889,
              -22.238277999999998
            ],
            [
              -45.938889,
              -22.222278
            ],
            [
              -45.958889,
              -22.222278
            ],
            [
              -45.958889,
              -22.238277999999998
            ]
          ]
        ]
      }
    },
    {
      "type": "Feature",
      "properties": {
        "zona": "ZM",
        "label": "Zona Mista"
      },
      "geometry": {
        "type": "Polygon",
        "coordinates": [
          [
            [
              -45.973889,
              -22.250277999999998
            ],
            [
              -45.958889,
              -22.250277999999998
            ],
            [
              -45.958889,
              -22.210278
            ],
            [
              -45.973889,
              -22.210278
            ],
            [
              -45.973889,
              -22.250277999999998
            ]
          ]
        ]
      }
    },
    {
      "type": "Feature",
      "properties": {
        "zona": "ZM1",
        "label": "Zona Mista 1"
      },
      "geometry": {
        "type": "Polygon",
        "coordinates": [
          [
            [
              -45.938889,
              -22.250277999999998
            ],
            [
              -45.923889,
              -22.250277999999998
            ],
            [
              -45.923889,
              -22.210278
            ],
            [
              -45.938889,
              -22.210278
            ],
            [
              -45.938889,
              -22.250277999999998
            ]
          ]
        ]
      }
    },
    {
      "type": "Feature",
      "properties": {
        "zona": "ZEU",
        "label": "Zona de Expansao Urbana"
      },
      "geometry": {
        "type": "Polygon",
        "coordinates": [
          [
            [
              -45.998889,
              -22.270277999999998
            ],
            [
              -45.898889000000004,
              -22.270277999999998
            ],
            [
              -45.898889000000004,
              -22.250277999999998
            ],
            [
              -45.998889,
              -22.250277999999998
            ],
            [
              -45.998889,
              -22.270277999999998
            ]
          ]
        ]
      }
    },
    {
      "type": "Feature",
      "properties": {
        "zona": "ZEIS",
        "label": "Zona Especial de Interesse Social"
      },
      "geometry": {
        "type": "Polygon",
        "coordinates": [
          [
            [
              -45.998889,
              -22.210278
            ],
            [
              -45.898889000000004,
              -22.210278
            ],
            [
              -45.898889000000004,
              -22.190278
            ],
            [
              -45.998889,
              -22.190278
            ],
            [
              -45.998889,
              -22.210278
            ]
          ]
        ]
      }
    },
    {
      "type": "Feature",
      "properties": {
        "zona": "ZPA",
        "label": "Zona de Preservacao Ambiental"
      },
      "geometry": {
        "type": "Polygon",
        "coordinates": [
          [
            [
              -46.018889,
              -22.290277999999997
            ],
            [
              -45.878889,
              -22.290277999999997
            ],
            [
              -45.878889,
              -22.270277999999998
            ],
            [
              -46.018889,
              -22.270277999999998
            ],
            [
              -46.018889,
              -22.290277999999997
            ]
          ]
        ]
      }
    }
  ]
}